TISAT 1                 
1 36799U 10035E   26068.75703561  .00024554  00000+0  91005-3 0  9996
2 36799  98.0645   6.8512 0001343 159.3030 200.8262 15.27628633852505
STARLINK-32582          
1 62033U 24216B   26068.68314801  .00031241  00000+0  11402-2 0  9992
2 62033  42.9967 263.3647 0001604 250.8388 109.2290 15.27572071 73795
