[{"OBJECT_NAME":"TISAT 1","OBJECT_ID":"2010-035E","EPOCH":"2026-03-09T18:10:07.877568","MEAN_MOTION":15.27628633,"ECCENTRICITY":0.00013432,"INCLINATION":98.0645,"RA_OF_ASC_NODE":6.8512,"ARG_OF_PERICENTER":159.303,"MEAN_ANOMALY":200.8262,"EPHEMERIS_TYPE":0,"CLASSIFICATION_TYPE":"U","NORAD_CAT_ID":36799,"ELEMENT_SET_NO":999,"REV_AT_EPOCH":85250,"BSTAR":0.00091004793,"MEAN_MOTION_DOT":0.00024554,"MEAN_MOTION_DDOT":0},{"OBJECT_NAME":"STARLINK-32582","OBJECT_ID":"2024-216B","EPOCH":"2026-03-09T16:23:43.988064","MEAN_MOTION":15.27572071,"ECCENTRICITY":0.00016042,"INCLINATION":42.9967,"RA_OF_ASC_NODE":263.3647,"ARG_OF_PERICENTER":250.8388,"MEAN_ANOMALY":109.229,"EPHEMERIS_TYPE":0,"CLASSIFICATION_TYPE":"U","NORAD_CAT_ID":62033,"ELEMENT_SET_NO":999,"REV_AT_EPOCH":7379,"BSTAR":0.0011402446,"MEAN_MOTION_DOT":0.00031241,"MEAN_MOTION_DDOT":0}]
